[{"OBJECT_NAME":"DMSP 5D-3 F16 (USA 172)","OBJECT_ID":"2003-048A","EPOCH":"2026-03-15T06:53:11.332608","MEAN_MOTION":14.14464381,"ECCENTRICITY":0.00079773,"INCLINATION":98.9986,"RA_OF_ASC_NODE":97.4563,"ARG_OF_PERICENTER":58.7202,"MEAN_ANOMALY":312.1993,"EPHEMERIS_TYPE":0,"CLASSIFICATION_TYPE":"U","NORAD_CAT_ID":28054,"ELEMENT_SET_NO":999,"REV_AT_EPOCH":15621,"BSTAR":0.00010035815,"MEAN_MOTION_DOT":1.47e-6,"MEAN_MOTION_DDOT":0},{"OBJECT_NAME":"METEOSAT-9 (MSG-2)","OBJECT_ID":"2005-049B","EPOCH":"2026-03-15T01:50:28.367808","MEAN_MOTION":1.00271159,"ECCENTRICITY":3.846e-5,"INCLINATION":9.1481,"RA_OF_ASC_NODE":55.0737,"ARG_OF_PERICENTER":223.8894,"MEAN_ANOMALY":327.1212,"EPHEMERIS_TYPE":0,"CLASSIFICATION_TYPE":"U","NORAD_CAT_ID":28912,"ELEMENT_SET_NO":999,"REV_AT_EPOCH":605,"BSTAR":0,"MEAN_MOTION_DOT":1.29e-6,"MEAN_MOTION_DDOT":0},{"OBJECT_NAME":"DMSP 5D-3 F17 (USA 191)","OBJECT_ID":"2006-050A","EPOCH":"2026-03-15T06:20:36.293280","MEAN_MOTION":14.14966797,"ECCENTRICITY":0.00094483,"INCLINATION":98.7413,"RA_OF_ASC_NODE":82.7462,"ARG_OF_PERICENTER":330.2751,"MEAN_ANOMALY":29.7885,"EPHEMERIS_TYPE":0,"CLASSIFICATION_TYPE":"U","NORAD_CAT_ID":29522,"ELEMENT_SET_NO":999,"REV_AT_EPOCH":99913,"BSTAR":0.00012114685,"MEAN_MOTION_DOT":1.91e-6,"MEAN_MOTION_DDOT":0},{"OBJECT_NAME":"FENGYUN 3A","OBJECT_ID":"2008-026A","EPOCH":"2026-03-15T02:12:34.403040","MEAN_MOTION":14.19548161,"ECCENTRICITY":0.00095246,"INCLINATION":98.6802,"RA_OF_ASC_NODE":16.7274,"ARG_OF_PERICENTER":44.2006,"MEAN_ANOMALY":315.993,"EPHEMERIS_TYPE":0,"CLASSIFICATION_TYPE":"U","NORAD_CAT_ID":32958,"ELEMENT_SET_NO":999,"REV_AT_EPOCH":92205,"BSTAR":7.0173147e-5,"MEAN_MOTION_DOT":1.05e-6,"MEAN_MOTION_DDOT":0},{"OBJECT_NAME":"GOES 14","OBJECT_ID":"2009-033A","EPOCH":"2026-03-15T05:58:34.574592","MEAN_MOTION":1.00103667,"ECCENTRICITY":0.00016738,"INCLINATION":1.4456,"RA_OF_ASC_NODE":84.2524,"ARG_OF_PERICENTER":273.9126,"MEAN_ANOMALY":99.5446,"EPHEMERIS_TYPE":0,"CLASSIFICATION_TYPE":"U","NORAD_CAT_ID":35491,"ELEMENT_SET_NO":999,"REV_AT_EPOCH":565,"BSTAR":0,"MEAN_MOTION_DOT":1.08e-6,"MEAN_MOTION_DDOT":0},{"OBJECT_NAME":"DMSP 5D-3 F18 (USA 210)","OBJECT_ID":"2009-057A","EPOCH":"2026-03-15T07:10:48.744192","MEAN_MOTION":14.1483966,"ECCENTRICITY":0.00114389,"INCLINATION":98.897,"RA_OF_ASC_NODE":55.3099,"ARG_OF_PERICENTER":152.5746,"MEAN_ANOMALY":207.6033,"EPHEMERIS_TYPE":0,"CLASSIFICATION_TYPE":"U","NORAD_CAT_ID":35951,"ELEMENT_SET_NO":999,"REV_AT_EPOCH":84631,"BSTAR":0.00015563588,"MEAN_MOTION_DOT":2.56e-6,"MEAN_MOTION_DDOT":0},{"OBJECT_NAME":"EWS-G2 (GOES 15)","OBJECT_ID":"2010-008A","EPOCH":"2026-03-14T22:30:10.076832","MEAN_MOTION":1.00270266,"ECCENTRICITY":0.00024959,"INCLINATION":1.0327,"RA_OF_ASC_NODE":84.9029,"ARG_OF_PERICENTER":17.6924,"MEAN_ANOMALY":110.8883,"EPHEMERIS_TYPE":0,"CLASSIFICATION_TYPE":"U","NORAD_CAT_ID":36411,"ELEMENT_SET_NO":999,"REV_AT_EPOCH":5869,"BSTAR":0,"MEAN_MOTION_DOT":2.1e-7,"MEAN_MOTION_DDOT":0},{"OBJECT_NAME":"COMS 1","OBJECT_ID":"2010-032A","EPOCH":"2026-03-14T22:48:38.307168","MEAN_MOTION":1.00272483,"ECCENTRICITY":8.055e-5,"INCLINATION":4.5606,"RA_OF_ASC_NODE":76.703,"ARG_OF_PERICENTER":289.7082,"MEAN_ANOMALY":276.4638,"EPHEMERIS_TYPE":0,"CLASSIFICATION_TYPE":"U","NORAD_CAT_ID":36744,"ELEMENT_SET_NO":999,"REV_AT_EPOCH":5014,"BSTAR":0,"MEAN_MOTION_DOT":-3.42e-6,"MEAN_MOTION_DDOT":0},{"OBJECT_NAME":"FENGYUN 3B","OBJECT_ID":"2010-059A","EPOCH":"2026-03-15T06:03:49.028256","MEAN_MOTION":14.14819778,"ECCENTRICITY":0.0023161,"INCLINATION":98.9763,"RA_OF_ASC_NODE":119.8185,"ARG_OF_PERICENTER":93.0479,"MEAN_ANOMALY":355.5325,"EPHEMERIS_TYPE":0,"CLASSIFICATION_TYPE":"U","NORAD_CAT_ID":37214,"ELEMENT_SET_NO":999,"REV_AT_EPOCH":79414,"BSTAR":0.00010262794,"MEAN_MOTION_DOT":1.53e-6,"MEAN_MOTION_DDOT":0},{"OBJECT_NAME":"SUOMI NPP","OBJECT_ID":"2011-061A","EPOCH":"2026-03-15T05:47:06.388224","MEAN_MOTION":14.19545341,"ECCENTRICITY":7.128e-5,"INCLINATION":98.7876,"RA_OF_ASC_NODE":15.7999,"ARG_OF_PERICENTER":194.178,"MEAN_ANOMALY":165.9376,"EPHEMERIS_TYPE":0,"CLASSIFICATION_TYPE":"U","NORAD_CAT_ID":37849,"ELEMENT_SET_NO":999,"REV_AT_EPOCH":74511,"BSTAR":6.9182499e-5,"MEAN_MOTION_DOT":1.02e-6,"MEAN_MOTION_DDOT":0},{"OBJECT_NAME":"METEOSAT-10 (MSG-3)","OBJECT_ID":"2012-035B","EPOCH":"2026-03-15T05:02:47.424768","MEAN_MOTION":1.00269366,"ECCENTRICITY":0.00023436,"INCLINATION":4.4478,"RA_OF_ASC_NODE":61.4089,"ARG_OF_PERICENTER":287.0946,"MEAN_ANOMALY":260.148,"EPHEMERIS_TYPE":0,"CLASSIFICATION_TYPE":"U","NORAD_CAT_ID":38552,"ELEMENT_SET_NO":999,"REV_AT_EPOCH":4991,"BSTAR":0,"MEAN_MOTION_DOT":-4.0e-8,"MEAN_MOTION_DDOT":0},{"OBJECT_NAME":"METOP-B","OBJECT_ID":"2012-049A","EPOCH":"2026-03-15T06:53:55.418208","MEAN_MOTION":14.21446634,"ECCENTRICITY":0.00013449,"INCLINATION":98.663,"RA_OF_ASC_NODE":127.61,"ARG_OF_PERICENTER":236.188,"MEAN_ANOMALY":123.917,"EPHEMERIS_TYPE":0,"CLASSIFICATION_TYPE":"U","NORAD_CAT_ID":38771,"ELEMENT_SET_NO":999,"REV_AT_EPOCH":69992,"BSTAR":7.4204623e-5,"MEAN_MOTION_DOT":1.19e-6,"MEAN_MOTION_DDOT":0},{"OBJECT_NAME":"INSAT-3D","OBJECT_ID":"2013-038B","EPOCH":"2026-03-15T05:39:43.882848","MEAN_MOTION":1.00276049,"ECCENTRICITY":0.0001549,"INCLINATION":1.6817,"RA_OF_ASC_NODE":83.7704,"ARG_OF_PERICENTER":245.0074,"MEAN_ANOMALY":58.5107,"EPHEMERIS_TYPE":0,"CLASSIFICATION_TYPE":"U","NORAD_CAT_ID":39216,"ELEMENT_SET_NO":999,"REV_AT_EPOCH":4613,"BSTAR":0,"MEAN_MOTION_DOT":-3.39e-6,"MEAN_MOTION_DDOT":0},{"OBJECT_NAME":"FENGYUN 3C","OBJECT_ID":"2013-052A","EPOCH":"2026-03-15T06:13:10.204896","MEAN_MOTION":14.15731071,"ECCENTRICITY":0.00136238,"INCLINATION":98.49,"RA_OF_ASC_NODE":52.4903,"ARG_OF_PERICENTER":296.0992,"MEAN_ANOMALY":63.8781,"EPHEMERIS_TYPE":0,"CLASSIFICATION_TYPE":"U","NORAD_CAT_ID":39260,"ELEMENT_SET_NO":999,"REV_AT_EPOCH":64527,"BSTAR":9.6334897e-5,"MEAN_MOTION_DOT":1.48e-6,"MEAN_MOTION_DDOT":0},{"OBJECT_NAME":"METEOR-M 2","OBJECT_ID":"2014-037A","EPOCH":"2026-03-15T05:51:47.978784","MEAN_MOTION":14.21431879,"ECCENTRICITY":0.0005048,"INCLINATION":98.5032,"RA_OF_ASC_NODE":53.3531,"ARG_OF_PERICENTER":320.3578,"MEAN_ANOMALY":39.7231,"EPHEMERIS_TYPE":0,"CLASSIFICATION_TYPE":"U","NORAD_CAT_ID":40069,"ELEMENT_SET_NO":999,"REV_AT_EPOCH":60597,"BSTAR":0.00012768993,"MEAN_MOTION_DOT":2.37e-6,"MEAN_MOTION_DDOT":0},{"OBJECT_NAME":"HIMAWARI-8","OBJECT_ID":"2014-060A","EPOCH":"2026-03-15T05:42:58.572288","MEAN_MOTION":1.0027119,"ECCENTRICITY":2.654e-5,"INCLINATION":0.0147,"RA_OF_ASC_NODE":164.6723,"ARG_OF_PERICENTER":168.0218,"MEAN_ANOMALY":66.5677,"EPHEMERIS_TYPE":0,"CLASSIFICATION_TYPE":"U","NORAD_CAT_ID":40267,"ELEMENT_SET_NO":999,"REV_AT_EPOCH":4181,"BSTAR":0,"MEAN_MOTION_DOT":-2.76e-6,"MEAN_MOTION_DDOT":0},{"OBJECT_NAME":"FENGYUN 2G","OBJECT_ID":"2014-090A","EPOCH":"2026-03-15T00:23:14.235072","MEAN_MOTION":1.00270668,"ECCENTRICITY":0.00014464,"INCLINATION":5.3993,"RA_OF_ASC_NODE":73.9508,"ARG_OF_PERICENTER":139.7041,"MEAN_ANOMALY":64.4853,"EPHEMERIS_TYPE":0,"CLASSIFICATION_TYPE":"U","NORAD_CAT_ID":40367,"ELEMENT_SET_NO":999,"REV_AT_EPOCH":4105,"BSTAR":0,"MEAN_MOTION_DOT":-3.0e-6,"MEAN_MOTION_DDOT":0}]
