DMSP 5D-3 F16 (USA 172) 
1 28054U 03048A   26074.28693672  .00000147  00000+0  10036-3 0  9990
2 28054  98.9986  97.4563 0007977  58.7202 312.1993 14.14464381156217
METEOSAT-9 (MSG-2)      
1 28912U 05049B   26074.07671722  .00000129  00000+0  00000+0 0  9991
2 28912   9.1481  55.0737 0000384 223.8894 327.1212  1.00271159  6050
DMSP 5D-3 F17 (USA 191) 
1 29522U 06050A   26074.26430895  .00000191  00000+0  12115-3 0  9990
2 29522  98.7413  82.7462 0009448 330.2751  29.7885 14.14966797999133
FENGYUN 3A              
1 32958U 08026A   26074.09206485  .00000105  00000+0  70173-4 0  9993
2 32958  98.6802  16.7274 0009524  44.2006 315.9930 14.19548161922053
GOES 14                 
1 35491U 09033A   26074.24901128  .00000108  00000+0  00000+0 0  9990
2 35491   1.4456  84.2524 0001673 273.9126  99.5446  1.00103667  5653
DMSP 5D-3 F18 (USA 210) 
1 35951U 09057A   26074.29917528  .00000256  00000+0  15564-3 0  9992
2 35951  98.8970  55.3099 0011438 152.5746 207.6033 14.14839660846319
EWS-G2 (GOES 15)        
1 36411U 10008A   26073.93761663  .00000021  00000+0  00000+0 0  9994
2 36411   1.0327  84.9029 0002495  17.6924 110.8883  1.00270266 58692
COMS 1                  
1 36744U 10032A   26073.95044337 -.00000342  00000+0  00000+0 0  9991
2 36744   4.5606  76.7030 0000805 289.7082 276.4638  1.00272483 50142
FENGYUN 3B              
1 37214U 10059A   26074.25265079  .00000153  00000+0  10263-3 0  9990
2 37214  98.9763 119.8185 0023161  93.0479 355.5325 14.14819778794142
SUOMI NPP               
1 37849U 11061A   26074.24104616  .00000102  00000+0  69182-4 0  9995
2 37849  98.7876  15.7999 0000712 194.1780 165.9376 14.19545341745110
METEOSAT-10 (MSG-3)     
1 38552U 12035B   26074.21027112 -.00000004  00000+0  00000+0 0  9992
2 38552   4.4478  61.4089 0002343 287.0946 260.1480  1.00269366 49915
METOP-B                 
1 38771U 12049A   26074.28744697  .00000119  00000+0  74205-4 0  9990
2 38771  98.6630 127.6100 0001344 236.1880 123.9170 14.21446634699920
INSAT-3D                
1 39216U 13038B   26074.23592457 -.00000339  00000+0  00000+0 0  9996
2 39216   1.6817  83.7704 0001549 245.0074  58.5107  1.00276049 46135
FENGYUN 3C              
1 39260U 13052A   26074.25914589  .00000148  00000+0  96335-4 0  9995
2 39260  98.4900  52.4903 0013623 296.0992  63.8781 14.15731071645274
METEOR-M 2              
1 40069U 14037A   26074.24430531  .00000237  00000+0  12769-3 0  9994
2 40069  98.5032  53.3531 0005048 320.3578  39.7231 14.21431879605975
HIMAWARI-8              
1 40267U 14060A   26074.23817792 -.00000276  00000+0  00000+0 0  9992
2 40267   0.0147 164.6723 0000265 168.0218  66.5677  1.00271190 41813
FENGYUN 2G              
1 40367U 14090A   26074.01613698 -.00000300  00000+0  00000+0 0  9999
2 40367   5.3993  73.9508 0001446 139.7041  64.4853  1.00270668 41053
